CCSDS_OMM_VERS = 2.0
CREATION_DATE  = 
ORIGINATOR     = 

OBJECT_NAME    = UNKNOWN
OBJECT_ID      = 
CENTER_NAME    = EARTH
REF_FRAME      = TEME
TIME_SYSTEM    = UTC
MEAN_ELEMENT_THEORY = SGP/SGP4

EPOCH          = 2025-12-22T06:50:48.870240
MEAN_MOTION    = 14.64473681
ECCENTRICITY   = .0104395
INCLINATION    = 98.6719
RA_OF_ASC_NODE = 180.3802
ARG_OF_PERICENTER = 238.0686
MEAN_ANOMALY   = 301.8977

EPHEMERIS_TYPE = 0
CLASSIFICATION_TYPE = U
NORAD_CAT_ID   = 87706
ELEMENT_SET_NO = 999
REV_AT_EPOCH   = 57991
BSTAR          = .92464E-3
MEAN_MOTION_DOT = .5246E-4
MEAN_MOTION_DDOT = 0

CCSDS_OMM_VERS = 2.0
CREATION_DATE  = 
ORIGINATOR     = 

OBJECT_NAME    = UNKNOWN
OBJECT_ID      = 
CENTER_NAME    = EARTH
REF_FRAME      = TEME
TIME_SYSTEM    = UTC
MEAN_ELEMENT_THEORY = SGP/SGP4

EPOCH          = 2025-12-21T10:12:38.540448
MEAN_MOTION    = 14.97622811
ECCENTRICITY   = .0018412
INCLINATION    = 82.8656
RA_OF_ASC_NODE = 247.9344
ARG_OF_PERICENTER = 29.2216
MEAN_ANOMALY   = 331.0033

EPHEMERIS_TYPE = 0
CLASSIFICATION_TYPE = U
NORAD_CAT_ID   = 87725
ELEMENT_SET_NO = 999
REV_AT_EPOCH   = 63522
BSTAR          = .21048E-2
MEAN_MOTION_DOT = .24774E-3
MEAN_MOTION_DDOT = 0

CCSDS_OMM_VERS = 2.0
CREATION_DATE  = 
ORIGINATOR     = 

OBJECT_NAME    = UNKNOWN
OBJECT_ID      = 
CENTER_NAME    = EARTH
REF_FRAME      = TEME
TIME_SYSTEM    = UTC
MEAN_ELEMENT_THEORY = SGP/SGP4

EPOCH          = 2025-12-20T09:05:19.410432
MEAN_MOTION    = 13.74507095
ECCENTRICITY   = .0029805
INCLINATION    = 82.9445
RA_OF_ASC_NODE = 228.4492
ARG_OF_PERICENTER = 345.0478
MEAN_ANOMALY   = 14.9793

EPHEMERIS_TYPE = 0
CLASSIFICATION_TYPE = U
NORAD_CAT_ID   = 87730
ELEMENT_SET_NO = 999
REV_AT_EPOCH   = 58638
BSTAR          = .10047E-3
MEAN_MOTION_DOT = .11E-5
MEAN_MOTION_DDOT = 0

CCSDS_OMM_VERS = 2.0
CREATION_DATE  = 
ORIGINATOR     = 

OBJECT_NAME    = UNKNOWN
OBJECT_ID      = 
CENTER_NAME    = EARTH
REF_FRAME      = TEME
TIME_SYSTEM    = UTC
MEAN_ELEMENT_THEORY = SGP/SGP4

EPOCH          = 2025-12-18T02:20:38.491872
MEAN_MOTION    = 13.72341587
ECCENTRICITY   = .0133152
INCLINATION    = 99.3741
RA_OF_ASC_NODE = 223.7797
ARG_OF_PERICENTER = 175.4171
MEAN_ANOMALY   = 184.8230

EPHEMERIS_TYPE = 0
CLASSIFICATION_TYPE = U
NORAD_CAT_ID   = 87737
ELEMENT_SET_NO = 999
REV_AT_EPOCH   = 60459
BSTAR          = .70202E-4
MEAN_MOTION_DOT = .25E-6
MEAN_MOTION_DDOT = 0

CCSDS_OMM_VERS = 2.0
CREATION_DATE  = 
ORIGINATOR     = 

OBJECT_NAME    = UNKNOWN
OBJECT_ID      = 
CENTER_NAME    = EARTH
REF_FRAME      = TEME
TIME_SYSTEM    = UTC
MEAN_ELEMENT_THEORY = SGP/SGP4

EPOCH          = 2025-12-21T19:44:55.727808
MEAN_MOTION    = 14.34950709
ECCENTRICITY   = .0359384
INCLINATION    = 65.6717
RA_OF_ASC_NODE = 137.4567
ARG_OF_PERICENTER = 71.9933
MEAN_ANOMALY   = 72.2361

EPHEMERIS_TYPE = 0
CLASSIFICATION_TYPE = U
NORAD_CAT_ID   = 87764
ELEMENT_SET_NO = 999
REV_AT_EPOCH   = 62042
BSTAR          = .5951E-3
MEAN_MOTION_DOT = .3418E-4
MEAN_MOTION_DDOT = 0

CCSDS_OMM_VERS = 2.0
CREATION_DATE  = 
ORIGINATOR     = 

OBJECT_NAME    = UNKNOWN
OBJECT_ID      = 
CENTER_NAME    = EARTH
REF_FRAME      = TEME
TIME_SYSTEM    = UTC
MEAN_ELEMENT_THEORY = SGP/SGP4

EPOCH          = 2025-12-19T08:40:53.183424
MEAN_MOTION    = 13.19518962
ECCENTRICITY   = .0119757
INCLINATION    = 100.7425
RA_OF_ASC_NODE = 189.6706
ARG_OF_PERICENTER = 347.3797
MEAN_ANOMALY   = 12.4327

EPHEMERIS_TYPE = 0
CLASSIFICATION_TYPE = U
NORAD_CAT_ID   = 87771
ELEMENT_SET_NO = 999
REV_AT_EPOCH   = 53596
BSTAR          = .33725E-3
MEAN_MOTION_DOT = .92E-6
MEAN_MOTION_DDOT = 0

CCSDS_OMM_VERS = 2.0
CREATION_DATE  = 
ORIGINATOR     = 

OBJECT_NAME    = UNKNOWN
OBJECT_ID      = 
CENTER_NAME    = EARTH
REF_FRAME      = TEME
TIME_SYSTEM    = UTC
MEAN_ELEMENT_THEORY = SGP/SGP4

EPOCH          = 2025-12-19T22:05:53.428128
MEAN_MOTION    = 13.00443526
ECCENTRICITY   = .0044553
INCLINATION    = 102.3410
RA_OF_ASC_NODE = 226.4636
ARG_OF_PERICENTER = 235.4264
MEAN_ANOMALY   = 124.2625

EPHEMERIS_TYPE = 0
CLASSIFICATION_TYPE = U
NORAD_CAT_ID   = 87782
ELEMENT_SET_NO = 999
REV_AT_EPOCH   = 56892
BSTAR          = .53196E-2
MEAN_MOTION_DOT = .1564E-4
MEAN_MOTION_DDOT = 0

CCSDS_OMM_VERS = 2.0
CREATION_DATE  = 
ORIGINATOR     = 

OBJECT_NAME    = UNKNOWN
OBJECT_ID      = 
CENTER_NAME    = EARTH
REF_FRAME      = TEME
TIME_SYSTEM    = UTC
MEAN_ELEMENT_THEORY = SGP/SGP4

EPOCH          = 2025-12-13T03:27:17.183232
MEAN_MOTION    = 13.16548050
ECCENTRICITY   = .0231272
INCLINATION    = 99.6629
RA_OF_ASC_NODE = 101.2591
ARG_OF_PERICENTER = 3.4413
MEAN_ANOMALY   = 356.8231

EPHEMERIS_TYPE = 0
CLASSIFICATION_TYPE = U
NORAD_CAT_ID   = 87843
ELEMENT_SET_NO = 999
REV_AT_EPOCH   = 56421
BSTAR          = .66071E-2
MEAN_MOTION_DOT = .2857E-4
MEAN_MOTION_DDOT = 0

CCSDS_OMM_VERS = 2.0
CREATION_DATE  = 
ORIGINATOR     = 

OBJECT_NAME    = UNKNOWN
OBJECT_ID      = 
CENTER_NAME    = EARTH
REF_FRAME      = TEME
TIME_SYSTEM    = UTC
MEAN_ELEMENT_THEORY = SGP/SGP4

EPOCH          = 2025-12-20T03:19:47.586144
MEAN_MOTION    = 12.88936716
ECCENTRICITY   = .0575644
INCLINATION    = 98.8580
RA_OF_ASC_NODE = 310.1873
ARG_OF_PERICENTER = 236.6825
MEAN_ANOMALY   = 117.7894

EPHEMERIS_TYPE = 0
CLASSIFICATION_TYPE = U
NORAD_CAT_ID   = 87845
ELEMENT_SET_NO = 999
REV_AT_EPOCH   = 56616
BSTAR          = .11342E-2
MEAN_MOTION_DOT = .573E-5
MEAN_MOTION_DDOT = 0

CCSDS_OMM_VERS = 2.0
CREATION_DATE  = 
ORIGINATOR     = 

OBJECT_NAME    = UNKNOWN
OBJECT_ID      = 
CENTER_NAME    = EARTH
REF_FRAME      = TEME
TIME_SYSTEM    = UTC
MEAN_ELEMENT_THEORY = SGP/SGP4

EPOCH          = 2025-12-20T01:38:07.076544
MEAN_MOTION    = 14.40761210
ECCENTRICITY   = .0035758
INCLINATION    = 99.1582
RA_OF_ASC_NODE = 114.0721
ARG_OF_PERICENTER = 243.6666
MEAN_ANOMALY   = 116.0847

EPHEMERIS_TYPE = 0
CLASSIFICATION_TYPE = U
NORAD_CAT_ID   = 87878
ELEMENT_SET_NO = 999
REV_AT_EPOCH   = 61235
BSTAR          = .80538E-3
MEAN_MOTION_DOT = .2546E-4
MEAN_MOTION_DDOT = 0

CCSDS_OMM_VERS = 2.0
CREATION_DATE  = 
ORIGINATOR     = 

OBJECT_NAME    = UNKNOWN
OBJECT_ID      = 
CENTER_NAME    = EARTH
REF_FRAME      = TEME
TIME_SYSTEM    = UTC
MEAN_ELEMENT_THEORY = SGP/SGP4

EPOCH          = 2025-12-21T13:00:48.805056
MEAN_MOTION    = 14.05991137
ECCENTRICITY   = .0154535
INCLINATION    = 98.7350
RA_OF_ASC_NODE = 99.0792
ARG_OF_PERICENTER = 43.8328
MEAN_ANOMALY   = 317.4984

EPHEMERIS_TYPE = 0
CLASSIFICATION_TYPE = U
NORAD_CAT_ID   = 87884
ELEMENT_SET_NO = 999
REV_AT_EPOCH   = 61960
BSTAR          = .31168E-4
MEAN_MOTION_DOT = .15E-6
MEAN_MOTION_DDOT = 0

CCSDS_OMM_VERS = 2.0
CREATION_DATE  = 
ORIGINATOR     = 

OBJECT_NAME    = UNKNOWN
OBJECT_ID      = 
CENTER_NAME    = EARTH
REF_FRAME      = TEME
TIME_SYSTEM    = UTC
MEAN_ELEMENT_THEORY = SGP/SGP4

EPOCH          = 2025-12-19T21:54:41.090976
MEAN_MOTION    = 12.35137390
ECCENTRICITY   = .0884884
INCLINATION    = 28.6179
RA_OF_ASC_NODE = 229.9811
ARG_OF_PERICENTER = 87.7318
MEAN_ANOMALY   = 282.4123

EPHEMERIS_TYPE = 0
CLASSIFICATION_TYPE = U
NORAD_CAT_ID   = 87991
ELEMENT_SET_NO = 999
REV_AT_EPOCH   = 52388
BSTAR          = .44674E-2
MEAN_MOTION_DOT = .2232E-4
MEAN_MOTION_DDOT = 0

